{
  "type": "FeatureCollection",
  "features": [
    {
      "type": "Feature",
      "properties": {
        "norad_id": 41556,
        "name": "ZIYUAN 3-2 (ZY 3-2)",
        "group": "resource",
        "lat": 33.24834100174945,
        "lon": 50.7631220962202,
        "alt_km": 504.3606418741465,
        "timestamp": "2025-12-07T09:35:09.449370+00:00",
        "meta_object_name": "ZIYUAN 3-2 (ZY 3-2)",
        "meta_object_id": "2016-033A",
        "meta_epoch": "2025-12-06T22:23:20.906304",
        "meta_mean_motion": 15.21377479,
        "meta_eccentricity": 0.00123446,
        "meta_inclination": 97.4051,
        "meta_ra_of_asc_node": 55.1955,
        "meta_arg_of_pericenter": 271.8368,
        "meta_mean_anomaly": 88.1454,
        "meta_ephemeris_type": 0,
        "meta_classification_type": "U",
        "meta_norad_cat_id": 41556,
        "meta_element_set_no": 999,
        "meta_rev_at_epoch": 52875,
        "meta_bstar": 0.00048320874,
        "meta_mean_motion_dot": 0.00010793,
        "meta_mean_motion_ddot": 0,
        "tle_line1": "1 41556U 16033A   25340.93288086  .00010793  00000+0  48321-3 0  9992",
        "tle_line2": "2 41556  97.4051  55.1955 0012344 271.8368  88.1454 15.21377479528751"
      },
      "geometry": {
        "type": "Point",
        "coordinates": [
          50.7631220962202,
          33.24834100174945
        ]
      }
    },
    {
      "type": "Feature",
      "properties": {
        "norad_id": 41599,
        "name": "CARTOSAT-2C",
        "group": "resource",
        "lat": 19.040753973915823,
        "lon": 36.106847181574174,
        "alt_km": 504.9323473976119,
        "timestamp": "2025-12-07T09:35:09.449381+00:00",
        "meta_object_name": "CARTOSAT-2C",
        "meta_object_id": "2016-040A",
        "meta_epoch": "2025-12-06T20:51:19.876320",
        "meta_mean_motion": 15.19207912,
        "meta_eccentricity": 0.00109797,
        "meta_inclination": 97.4771,
        "meta_ra_of_asc_node": 38.1798,
        "meta_arg_of_pericenter": 82.9418,
        "meta_mean_anomaly": 277.3064,
        "meta_ephemeris_type": 0,
        "meta_classification_type": "U",
        "meta_norad_cat_id": 41599,
        "meta_element_set_no": 999,
        "meta_rev_at_epoch": 52451,
        "meta_bstar": 0.00035994503,
        "meta_mean_motion_dot": 7.522e-05,
        "meta_mean_motion_ddot": 0,
        "tle_line1": "1 41599U 16040A   25340.86898005  .00007522  00000+0  35995-3 0  9996",
        "tle_line2": "2 41599  97.4771  38.1798 0010979  82.9418 277.3064 15.19207912524512"
      },
      "geometry": {
        "type": "Point",
        "coordinates": [
          36.106847181574174,
          19.040753973915823
        ]
      }
    },
    {
      "type": "Feature",
      "properties": {
        "norad_id": 41601,
        "name": "SKYSAT-C1",
        "group": "resource",
        "lat": -0.4287154549308839,
        "lon": -161.3376353828333,
        "alt_km": 473.4608586656259,
        "timestamp": "2025-12-07T09:35:09.449392+00:00",
        "meta_object_name": "SKYSAT-C1",
        "meta_object_id": "2016-040C",
        "meta_epoch": "2025-12-06T21:49:54.034752",
        "meta_mean_motion": 15.32433886,
        "meta_eccentricity": 0.00029719,
        "meta_inclination": 96.9827,
        "meta_ra_of_asc_node": 18.2528,
        "meta_arg_of_pericenter": 31.45,
        "meta_mean_anomaly": 328.692,
        "meta_ephemeris_type": 0,
        "meta_classification_type": "U",
        "meta_norad_cat_id": 41601,
        "meta_element_set_no": 999,
        "meta_rev_at_epoch": 52838,
        "meta_bstar": 0.00046014038,
        "meta_mean_motion_dot": 0.00014351,
        "meta_mean_motion_ddot": 0,
        "tle_line1": "1 41601U 16040C   25340.90965318  .00014351  00000+0  46014-3 0  9999",
        "tle_line2": "2 41601  96.9827  18.2528 0002971  31.4500 328.6920 15.32433886528382"
      },
      "geometry": {
        "type": "Point",
        "coordinates": [
          -161.3376353828333,
          -0.4287154549308839
        ]
      }
    },
    {
      "type": "Feature",
      "properties": {
        "norad_id": 41603,
        "name": "LAPAN-A3",
        "group": "resource",
        "lat": -16.914308900861904,
        "lon": -18.66462169956096,
        "alt_km": 469.4133106606141,
        "timestamp": "2025-12-07T09:35:09.449402+00:00",
        "meta_object_name": "LAPAN-A3",
        "meta_object_id": "2016-040E",
        "meta_epoch": "2025-12-06T22:40:59.608704",
        "meta_mean_motion": 15.31482063,
        "meta_eccentricity": 0.00103738,
        "meta_inclination": 97.1423,
        "meta_ra_of_asc_node": 338.7123,
        "meta_arg_of_pericenter": 355.6302,
        "meta_mean_anomaly": 4.4848,
        "meta_ephemeris_type": 0,
        "meta_classification_type": "U",
        "meta_norad_cat_id": 41603,
        "meta_element_set_no": 999,
        "meta_rev_at_epoch": 52537,
        "meta_bstar": 0.00020526535,
        "meta_mean_motion_dot": 6.176e-05,
        "meta_mean_motion_ddot": 0,
        "tle_line1": "1 41603U 16040E   25340.94513436  .00006176  00000+0  20527-3 0  9992",
        "tle_line2": "2 41603  97.1423 338.7123 0010373 355.6302   4.4848 15.31482063525370"
      },
      "geometry": {
        "type": "Point",
        "coordinates": [
          -18.66462169956096,
          -16.914308900861904
        ]
      }
    },
    {
      "type": "Feature",
      "properties": {
        "norad_id": 41604,
        "name": "BIROS",
        "group": "resource",
        "lat": 28.4581102575782,
        "lon": -163.51637666157137,
        "alt_km": 306.081316023563,
        "timestamp": "2025-12-07T09:35:09.449413+00:00",
        "meta_object_name": "BIROS",
        "meta_object_id": "2016-040F",
        "meta_epoch": "2025-12-06T19:20:04.382592",
        "meta_mean_motion": 15.87267806,
        "meta_eccentricity": 0.00030582,
        "meta_inclination": 97.0681,
        "meta_ra_of_asc_node": 12.0117,
        "meta_arg_of_pericenter": 161.6931,
        "meta_mean_anomaly": 198.4452,
        "meta_ephemeris_type": 0,
        "meta_classification_type": "U",
        "meta_norad_cat_id": 41604,
        "meta_element_set_no": 999,
        "meta_rev_at_epoch": 52778,
        "meta_bstar": 0.00078769178,
        "meta_mean_motion_dot": 0.00209332,
        "meta_mean_motion_ddot": 0,
        "tle_line1": "1 41604U 16040F   25340.80560628  .00209332  00000+0  78769-3 0  9993",
        "tle_line2": "2 41604  97.0681  12.0117 0003058 161.6931 198.4452 15.87267806527785"
      },
      "geometry": {
        "type": "Point",
        "coordinates": [
          -163.51637666157137,
          28.4581102575782
        ]
      }
    },
    {
      "type": "Feature",
      "properties": {
        "norad_id": 41727,
        "name": "GAOFEN-3",
        "group": "resource",
        "lat": 33.742049433237575,
        "lon": -18.60001615578009,
        "alt_km": 748.1582965818261,
        "timestamp": "2025-12-07T09:35:09.449423+00:00",
        "meta_object_name": "GAOFEN-3",
        "meta_object_id": "2016-049A",
        "meta_epoch": "2025-12-06T23:26:15.556416",
        "meta_mean_motion": 14.42211605,
        "meta_eccentricity": 0.00015169,
        "meta_inclination": 98.404,
        "meta_ra_of_asc_node": 346.6508,
        "meta_arg_of_pericenter": 70.1523,
        "meta_mean_anomaly": 289.9831,
        "meta_ephemeris_type": 0,
        "meta_classification_type": "U",
        "meta_norad_cat_id": 41727,
        "meta_element_set_no": 999,
        "meta_rev_at_epoch": 49094,
        "meta_bstar": 6.3474885e-05,
        "meta_mean_motion_dot": 1.66e-06,
        "meta_mean_motion_ddot": 0,
        "tle_line1": "1 41727U 16049A   25340.97656894  .00000166  00000+0  63475-4 0  9990",
        "tle_line2": "2 41727  98.4040 346.6508 0001516  70.1523 289.9831 14.42211605490943"
      },
      "geometry": {
        "type": "Point",
        "coordinates": [
          -18.60001615578009,
          33.742049433237575
        ]
      }
    },
    {
      "type": "Feature",
      "properties": {
        "norad_id": 41771,
        "name": "SKYSAT-C4",
        "group": "resource",
        "lat": -68.04888662570725,
        "lon": 24.43215865151535,
        "alt_km": 448.058777724581,
        "timestamp": "2025-12-07T09:35:09.449433+00:00",
        "meta_object_name": "SKYSAT-C4",
        "meta_object_id": "2016-058B",
        "meta_epoch": "2025-12-06T19:52:06.678048",
        "meta_mean_motion": 15.42002885,
        "meta_eccentricity": 9.846e-05,
        "meta_inclination": 96.9374,
        "meta_ra_of_asc_node": 6.3039,
        "meta_arg_of_pericenter": 131.396,
        "meta_mean_anomaly": 228.7373,
        "meta_ephemeris_type": 0,
        "meta_classification_type": "U",
        "meta_norad_cat_id": 41771,
        "meta_element_set_no": 999,
        "meta_rev_at_epoch": 51576,
        "meta_bstar": 0.00056503522,
        "meta_mean_motion_dot": 0.0002405,
        "meta_mean_motion_ddot": 0,
        "tle_line1": "1 41771U 16058B   25340.82785507  .00024050  00000+0  56504-3 0  9999",
        "tle_line2": "2 41771  96.9374   6.3039 0000984 131.3960 228.7373 15.42002885515766"
      },
      "geometry": {
        "type": "Point",
        "coordinates": [
          24.43215865151535,
          -68.04888662570725
        ]
      }
    }
  ]
}